NORAD_CAT_ID,OBJECT_NAME,OBJECT_TYPE,EPOCH,MEAN_MOTION,ECCENTRICITY,INCLINATION,RA_OF_ASC_NODE,ARG_OF_PERICENTER,MEAN_ANOMALY,BSTAR,MEAN_MOTION_DOT,MEAN_MOTION_DDOT,TLE_LINE0,TLE_LINE1,TLE_LINE2,SEMIMAJOR_AXIS,PERIOD,APOGEE,PERIGEE,DECAYED
55291.0,STARLINK-5327,PAYLOAD,2023-01-24 16:00:00,15.9457225,0.0038643,69.9996,55.2006,163.5952,355.0502,-0.0021761999999999,-0.00891325,0.00025081,0 STARLINK-5327,1 55291U 23010Y   23024.66667824 -.00891325  25081-3 -21762-2 0  9993,2 55291  69.9996  55.2006 0038643 163.5952 355.0502 15.94572250  1309,6667.644,90.306,315.274,263.743,0.0
55291.0,STARLINK-5327,PAYLOAD,2023-01-25 14:00:01,15.9294131,0.0029676999999999,69.9994,52.5306,165.632,210.7809,-0.0025298,-0.00920122,0.00026156,0 STARLINK-5327,1 55291U 23010Y   23025.58334491 -.00920122  26156-3 -25298-2 0  9996,2 55291  69.9994  52.5306 0029677 165.6320 210.7809 15.92941310  1301,6672.194,90.399,313.86,274.258,0.0
55291.0,STARLINK-5327,PAYLOAD,2023-01-25 16:00:01,15.92780295,0.0029215,69.9995,52.2885,165.7046,328.4888,-0.002485,-0.00895123,0.00024815,0 STARLINK-5327,1 55291U 23010Y   23025.66668981 -.00895123  24815-3 -24850-2 0  9994,2 55291  69.9995  52.2885 0029215 165.7046 328.4888 15.92780295  1458,6672.644,90.408,314.003,275.014,0.0
55291.0,STARLINK-5327,PAYLOAD,2023-01-25 22:00:00,15.92328623,0.0026731,69.9999,51.5619,166.2969,320.6931,-0.0025410999999999,-0.00887855,0.00024332,0 STARLINK-5327,1 55291U 23010Y   23025.91667824 -.00887855  24332-3 -25411-2 0  9998,2 55291  69.9999  51.5619 0026731 166.2969 320.6931 15.92328623  1309,6673.905,90.434,313.61,277.93,0.0
55291.0,STARLINK-5327,PAYLOAD,2023-01-26 00:00:00,15.92193576,0.0026257,69.9999,51.3195,166.7439,77.7724,-0.0026529,-0.00919044,0.00025902,0 STARLINK-5327,1 55291U 23010Y   23026.00001157 -.00919044  25902-3 -26529-2 0  9991,2 55291  69.9999  51.3195 0026257 166.7439  77.7724 15.92193576  1516,6674.283,90.441,313.672,278.623,0.0
55291.0,STARLINK-5327,PAYLOAD,2023-01-26 10:00:00,15.91435869,0.0022771,70.0003,50.1099,168.6011,302.9016,-0.0027142,-0.00896743,0.00024562,0 STARLINK-5327,1 55291U 23010Y   23026.41667824 -.00896743  24562-3 -27142-2 0  9998,2 55291  70.0003  50.1099 0022771 168.6011 302.9016 15.91435869  1575,6676.401,90.484,313.469,283.063,0.0
55291.0,STARLINK-5327,PAYLOAD,2023-01-26 14:00:01,15.91149928,0.0020941999999999,69.9996,49.6257,171.0232,174.9552,-0.0028548,-0.00925703,0.00025977,0 STARLINK-5327,1 55291U 23010Y   23026.58334491 -.00925703  25977-3 -28548-2 0  9998,2 55291  69.9996  49.6257 0020942 171.0232 174.9552 15.91149928  1304,6677.201,90.501,313.04900000000004,285.082,0.0
55291.0,STARLINK-5327,PAYLOAD,2023-01-26 18:00:00,15.90846152,0.0020022,70.0,49.1425,172.025,48.2552,-0.002872,-0.00915311,0.00025362,0 STARLINK-5327,1 55291U 23010Y   23026.75001157 -.00915311  25362-3 -28720-2 0  9991,2 55291  70.0000  49.1425 0020022 172.0250  48.2552 15.90846152  1636,6678.051,90.518,313.28700000000003,286.545,0.0
55291.0,STARLINK-5327,PAYLOAD,2023-01-27 02:00:01,15.90262497,0.0017062,70.0002,48.1768,176.2356,152.1016,-0.0030644,-0.00942983,0.00026646,0 STARLINK-5327,1 55291U 23010Y   23027.08334491 -.00942983  26646-3 -30644-2 0  9997,2 55291  70.0002  48.1768 0017062 176.2356 152.1016 15.90262497  1689,6679.685,90.551,312.947,290.153,0.0
55291.0,STARLINK-5327,PAYLOAD,2023-01-27 08:00:01,15.89809799,0.0015475999999999,70.0,47.4524,178.6279,140.2879,-0.0031217,-0.00936664,0.00026199,0 STARLINK-5327,1 55291U 23010Y   23027.33334491 -.00936664  26199-3 -31217-2 0  9994,2 55291  70.0000  47.4524 0015476 178.6279 140.2879 15.89809799  1726,6680.953,90.577,313.157,292.478,0.0
55291.0,STARLINK-5327,PAYLOAD,2023-01-27 14:00:01,15.89355095,0.0013456,69.9993,46.7283,184.46,124.6315,-0.0031608,-0.00924569,0.00025463,0 STARLINK-5327,1 55291U 23010Y   23027.58334491 -.00924569  25463-3 -31608-2 0  9999,2 55291  69.9993  46.7283 0013456 184.4600 124.6315 15.89355095  1307,6682.227,90.603,313.083,295.1,0.0
55291.0,STARLINK-5327,PAYLOAD,2023-01-27 16:00:00,15.89204195,0.001291,69.9997,46.4878,186.1785,239.5473,-0.0031674,-0.00918956,0.0002514,0 STARLINK-5327,1 55291U 23010Y   23027.66667824 -.00918956  25140-3 -31674-2 0  9995,2 55291  69.9997  46.4878 0012910 186.1785 239.5473 15.89204195  1771,6682.65,90.611,313.142,295.888,0.0
55291.0,STARLINK-5327,PAYLOAD,2023-01-27 22:00:00,15.88754151,0.0011017999999999,70.0001,45.7648,193.8772,221.4845,-0.0032385999999999,-0.00916885,0.00024926,0 STARLINK-5327,1 55291U 23010Y   23027.91667824 -.00916885  24926-3 -32386-2 0  9994,2 55291  70.0001  45.7648 0011018 193.8772 221.4845 15.88754151  1815,6683.911999999999,90.637,313.141,298.41200000000003,0.0
55291.0,STARLINK-5327,PAYLOAD,2023-01-28 14:00:01,15.87560877,0.0008642,69.9992,43.8385,220.9437,44.8062,-0.0034636,-0.00843813,0.0,0 STARLINK-5327,1 55291U 23010Y   23028.58334491 -.00843813  00000-0 -34636-2 0  9993,2 55291  69.9992  43.8385 0008642 220.9437  44.8062 15.87560877  1308,6687.261,90.705,314.905,303.346,0.0
55291.0,STARLINK-5327,PAYLOAD,2023-01-28 22:00:00,15.86963619,0.000836,69.9998,42.8775,241.3956,128.473,-0.0035821,-0.0084672,0.0,0 STARLINK-5327,1 55291U 23010Y   23028.91667824 -.00846720  00000-0 -35821-2 0  9996,2 55291  69.9998  42.8775 0008360 241.3956 128.4730 15.86963619  1307,6688.938,90.739,316.395,305.211,0.0
55291.0,STARLINK-5327,PAYLOAD,2023-01-29 00:00:00,15.86803168,0.0008313,70.0001,42.6374,244.7369,241.0524,-0.003511,-0.00825284,0.0,0 STARLINK-5327,1 55291U 23010Y   23029.00001157 -.00825284  00000-0 -35110-2 0  9991,2 55291  70.0001  42.6374 0008313 244.7369 241.0524 15.86803168  1980,6689.389,90.748,316.815,305.693,0.0
55291.0,STARLINK-5327,PAYLOAD,2023-01-29 22:00:01,15.85147466,0.0007651,70.0,39.998,268.9698,49.0267,-0.0037256,-0.00808685,0.0,0 STARLINK-5327,1 55291U 23010Y   23029.91668981 -.00808685  00000-0 -37256-2 0  9994,2 55291  70.0000  39.9980 0007651 268.9698  49.0267 15.85147466  1305,6694.047,90.843,321.033,310.79,0.0
55291.0,STARLINK-5327,PAYLOAD,2023-01-30 00:00:00,15.85025377,0.0007061,70.0002,39.7589,269.9175,163.3817,-0.0039717,-0.00852387,0.0,0 STARLINK-5327,1 55291U 23010Y   23030.00001157 -.00852387  00000-0 -39717-2 0  9994,2 55291  70.0002  39.7589 0007061 269.9175 163.3817 15.85025377  2146,6694.39,90.85,320.982,311.528,0.0
55291.0,STARLINK-5327,PAYLOAD,2023-01-30 14:00:01,15.83983217,0.000564,69.9995,38.0829,268.5916,251.1097,-0.0042119,-0.00858185,0.0,0 STARLINK-5327,1 55291U 23010Y   23030.58334491 -.00858185  00000-0 -42119-2 0  9999,2 55291  69.9995  38.0829 0005640 268.5916 251.1097 15.83983217  1309,6697.326,90.91,322.969,315.414,0.0
55291.0,STARLINK-5327,PAYLOAD,2023-01-30 22:00:00,15.83368737,0.0004065,70.0,37.127,275.1193,344.4042,-0.0041888,-0.00830549,0.0,0 STARLINK-5327,1 55291U 23010Y   23030.91667824 -.00830549  00000-0 -41888-2 0  9991,2 55291  70.0000  37.1270 0004065 275.1193 344.4042 15.83368737  1300,6699.059,90.945,323.647,318.201,0.0
55291.0,STARLINK-5327,PAYLOAD,2023-01-31 02:00:01,15.83044289,0.0003487,69.9999,36.649,279.8078,209.3661,-0.0040498,-0.00793789,0.0,0 STARLINK-5327,1 55291U 23010Y   23031.08334491 -.00793789  00000-0 -40498-2 0  9991,2 55291  69.9999  36.6490 0003487 279.8078 209.3661 15.83044289  2313,6699.974,90.964,324.175,319.503,0.0
55291.0,STARLINK-5327,PAYLOAD,2023-01-31 14:00:01,15.82177888,0.0003549,69.9994,35.216,269.7919,187.2108,-0.0044763,-0.00838084,0.0,0 STARLINK-5327,1 55291U 23010Y   23031.58334491 -.00838084  00000-0 -44763-2 0  9993,2 55291  69.9994  35.2160 0003549 269.7919 187.2108 15.82177888  1307,6702.42,91.014,326.664,321.906,0.0
55291.0,STARLINK-5327,PAYLOAD,2023-01-31 16:00:00,15.82031927,0.00035,69.9996,34.9777,266.8306,304.654,-0.0045404,-0.0084372,0.0,0 STARLINK-5327,1 55291U 23010Y   23031.66667824 -.00843720  00000-0 -45404-2 0  9997,2 55291  69.9996  34.9777 0003500 266.8306 304.6540 15.82031927  2415,6702.832,91.022,327.043,322.351,0.0
55291.0,STARLINK-5327,PAYLOAD,2023-01-31 22:00:00,15.81579516,0.000348,69.9998,34.2625,270.7913,283.8763,-0.0046001,-0.00837529,0.0,0 STARLINK-5327,1 55291U 23010Y   23031.91667824 -.00837529  00000-0 -46001-2 0  9999,2 55291  69.9998  34.2625 0003480 270.7913 283.8763 15.81579516  1309,6704.11,91.048,328.308,323.642,0.0
55291.0,STARLINK-5327,PAYLOAD,2023-02-01 14:00:01,15.8039121,0.0003645,69.9994,32.3565,267.017,120.8257,-0.0049215,-0.00847188,0.0,0 STARLINK-5327,1 55291U 23010Y   23032.58334491 -.00847188  00000-0 -49215-2 0  9996,2 55291  69.9994  32.3565 0003645 267.0170 120.8257 15.80391210  2552,6707.47,91.117,331.78,326.891,0.0
55291.0,STARLINK-5327,PAYLOAD,2023-02-02 14:00:01,15.78590787,0.0003572,69.9993,29.5048,264.5719,47.6633,-0.0052798,-0.00838027,0.0,0 STARLINK-5327,1 55291U 23010Y   23033.58334491 -.00838027  00000-0 -52798-2 0  9999,2 55291  69.9993  29.5048 0003572 264.5719  47.6633 15.78590787  1308,6712.57,91.221,336.832,332.037,0.0
55291.0,STARLINK-5327,PAYLOAD,2023-02-03 02:00:01,15.77719238,0.0003746,69.9995,28.0814,257.7145,14.2822,-0.0057275,-0.00870807,0.0,0 STARLINK-5327,1 55291U 23010Y   23034.08334491 -.00870807  00000-0 -57275-2 0  9992,2 55291  69.9995  28.0814 0003746 257.7145  14.2822 15.77719238  2792,6715.041,91.271,339.422,334.391,0.0
55291.0,STARLINK-5327,PAYLOAD,2023-02-03 14:00:01,15.76800714,0.0003494,69.9991,26.6607,263.5701,326.5991,-0.0057618,-0.00843413,0.0,0 STARLINK-5327,1 55291U 23010Y   23034.58334491 -.00843413  00000-0 -57618-2 0  9991,2 55291  69.9991  26.6607 0003494 263.5701 326.5991 15.76800714  1306,6717.649,91.324,341.861,337.167,0.0
55291.0,STARLINK-5327,PAYLOAD,2023-02-03 22:00:00,15.76196865,0.0003563,70.0,25.7153,266.3998,54.9826,-0.0058496,-0.0083455,0.0,0 STARLINK-5327,1 55291U 23010Y   23034.91667824 -.00834550  00000-0 -58496-2 0  9994,2 55291  70.0000  25.7153 0003563 266.3998  54.9826 15.76196865  1306,6719.365,91.359,343.624,338.835,0.0
